ORBCOMM FM06            
1 25118U 97084G   26170.37161350  .00000922  00000+0  28741-3 0  9994
2 25118  45.0147  42.1961 0000960 339.4902 189.9949 14.47567303494701
ORBCOMM FM04            
1 25159U 98007C   26171.25108675  .00000599  00000+0  25068-3 0  9993
2 25159 107.9626 175.7253 0041440 319.5001  40.3058 14.35745966477038
ORBCOMM FM19            
1 25415U 98046C   26170.59753160  .00000471  00000+0  19509-3 0  9994
2 25415  44.9928 232.1045 0004555 291.3057 220.8050 14.39498899457128
ORBCOMM FM20            
1 25416U 98046D   26171.20858727  .00000332  00000+0  15516-3 0  9999
2 25416  44.9929 237.1557 0002400 260.0825  99.9753 14.38069327457221
ORBCOMM FM27            
1 25481U 98053G   26170.13124017  .00000614  00000+0  24224-3 0  9997
2 25481  45.0043 326.1186 0001197 200.3982 159.6819 14.39143880450512
ORBCOMM FM32            
1 25982U 99065C   26171.00154369  .00000315  00000+0  15234-3 0  9996
2 25982  45.0134 159.9179 0004329  50.9865 309.1368 14.37132393387494
ORBCOMM FM109           
1 40086U 14040A   26170.01595539  .00000301  00000+0  99899-4 0  9991
2 40086  47.0031  82.8397 0001935 251.0787 108.9889 14.58846512634617
ORBCOMM FM110           
1 41182U 15081D   26171.18577907  .00000452  00000+0  13179-3 0  9996
2 41182  47.0032 347.2650 0002477  94.2496 265.8673 14.58884051558060
ORBCOMM FM118           
1 41183U 15081E   26169.91880297  .00001935  00000+0  44524-3 0  9999
2 41183  47.0047 353.5866 0002527  37.2659 322.8402 14.58881067557988
ORBCOMM FM112           
1 41184U 15081F   26170.67666296  .00000364  00000+0  11315-3 0  9993
2 41184  46.9988 258.4754 0003862 227.9874 132.0683 14.58907266559311
ORBCOMM FM113           
1 41185U 15081G   26171.20126286  .00000204  00000+0  79455-4 0  9997
2 41185  47.0004 256.3723 0002404 235.0775 124.9885 14.58860795559372
ORBCOMM FM108           
1 41187U 15081J   26169.04056137  .00000258  00000+0  90814-4 0  9996
2 41187  47.0030 178.1625 0002987 224.9174 135.1471 14.58870752560204
ORBCOMM FM117           
1 41188U 15081K   26171.12916011  .00000118  00000+0  61211-4 0  9999
2 41188  46.9990 166.9203 0003588 235.9819 124.0726 14.58866346560553
ORBCOMM FM116           
1 41189U 15081L   26171.24654257  .00000372  00000+0  11477-3 0  9994
2 41189  47.0018 256.1563 0000513  99.1383 260.9561 14.58886945559382
